STARLINK-31650          
1 59512U 24073B   26068.09562253  .00004401  00000+0  16941-3 0  9994
2 59512  43.0062 321.4729 0001120  14.9251 345.1633 15.27567219106088
FLOCK 4G-8              
1 62613U 25009E   26068.72381419  .00013559  00000+0  50438-3 0  9996
2 62613  97.4045 151.2834 0003050 315.2538  44.8455 15.27623414 63721
